IRIDIUM 39              
1 25042U 97069D   25134.77887212  .00000647  00000+0  16424-3 0  9997
2 25042  86.3947 225.4432 0019749  62.8053 297.5161 14.49183024444120
IRIDIUM 38              
1 25043U 97069E   25134.84002657  .00000470  00000+0  14856-3 0  9999
2 25043  86.3963 247.1775 0002321 145.8052 214.3296 14.38090275441169
IRIDIUM 42              
1 25077U 97077A   25134.94463069  .00000388  00000+0  12608-3 0  9995
2 25077  86.3959 253.2643 0001794 113.6027 246.5358 14.36326481436429
IRIDIUM 44              
1 25078U 97077B   25134.78035088  .00000442  00000+0  13356-3 0  9996
2 25078  86.3980 235.3420 0003830 114.9599 245.1998 14.40216274438890
IRIDIUM 45              
1 25104U 97082A   25134.91463895  .00020663  00000+0  75396-3 0  9997
2 25104  86.3602  64.0323 0122996  96.0261 265.5015 15.21053316446982
IRIDIUM 24              
1 25105U 97082B   25134.86576942  .00000598  00000+0  17594-3 0  9991
2 25105  86.3882  94.4345 0011150 176.5721 183.5558 14.42066713438415
IRIDIUM 51              
1 25262U 98018A   25134.86438746  .00047823  00000+0  11218-2 0  9992
2 25262  86.3849  72.3039 0091966  20.9712 339.5272 15.37461715441902
IRIDIUM 57              
1 25273U 98019B   25134.58251446  .00000340  00000+0  11071-3 0  9995
2 25273  86.3975 159.3390 0002283  93.2802 266.8655 14.35871640420179
